STARLINK-31279          
1 59086U 24041N   26068.40296014 -.00000476  00000+0 -77806-5 0  9998
2 59086  43.0036 312.6672 0001274 267.9500  92.1205 15.27575078114277
TEVEL2-7                
1 63238U 25052AE  26068.66113295  .00019244  00000+0  69668-3 0  9998
2 63238  97.4054 324.3041 0008105 124.6830 235.5175 15.28414096 54803
